{
  "type": "FeatureCollection",
  "features": [
    {
      "type": "Feature",
      "properties": {
        "norad_id": 66920,
        "name": "HULIANWANG DIGUI-110",
        "group": "last-30-days",
        "lat": -33.04673291109078,
        "lon": 60.85070061929678,
        "alt_km": 880.7551402447771,
        "timestamp": "2025-12-18T10:51:24.516438+00:00",
        "meta_object_name": "HULIANWANG DIGUI-110",
        "meta_object_id": "2025-285F",
        "meta_epoch": "2025-12-17T23:06:41.764032",
        "meta_mean_motion": 14.03681403,
        "meta_eccentricity": 0.00055736,
        "meta_inclination": 50.0113,
        "meta_ra_of_asc_node": 95.9378,
        "meta_arg_of_pericenter": 307.0706,
        "meta_mean_anomaly": 52.9689,
        "meta_ephemeris_type": 0,
        "meta_classification_type": "U",
        "meta_norad_cat_id": 66920,
        "meta_element_set_no": 999,
        "meta_rev_at_epoch": 164,
        "meta_bstar": 5.763979e-05,
        "meta_mean_motion_dot": -6e-07,
        "meta_mean_motion_ddot": 0,
        "tle_line1": "1 66920U 25285F   25351.96298338 -.00000060  00000+0  57640-4 0  9991",
        "tle_line2": "2 66920  50.0113  95.9378 0005573 307.0706  52.9689 14.03681403  1649"
      },
      "geometry": {
        "type": "Point",
        "coordinates": [
          60.85070061929678,
          -33.04673291109078
        ]
      }
    },
    {
      "type": "Feature",
      "properties": {
        "norad_id": 66921,
        "name": "HULIANWANG DIGUI-111",
        "group": "last-30-days",
        "lat": -29.8366887048759,
        "lon": 65.16445998202482,
        "alt_km": 879.8742250793584,
        "timestamp": "2025-12-18T10:51:24.516452+00:00",
        "meta_object_name": "HULIANWANG DIGUI-111",
        "meta_object_id": "2025-285G",
        "meta_epoch": "2025-12-17T23:05:16.537344",
        "meta_mean_motion": 14.0363009,
        "meta_eccentricity": 0.00067291,
        "meta_inclination": 50.0114,
        "meta_ra_of_asc_node": 95.9368,
        "meta_arg_of_pericenter": 314.3537,
        "meta_mean_anomaly": 45.6815,
        "meta_ephemeris_type": 0,
        "meta_classification_type": "U",
        "meta_norad_cat_id": 66921,
        "meta_element_set_no": 999,
        "meta_rev_at_epoch": 164,
        "meta_bstar": -1.7713427e-05,
        "meta_mean_motion_dot": -1.79e-06,
        "meta_mean_motion_ddot": 0,
        "tle_line1": "1 66921U 25285G   25351.96199696 -.00000179  00000+0 -17713-4 0  9998",
        "tle_line2": "2 66921  50.0114  95.9368 0006729 314.3537  45.6815 14.03630090  1643"
      },
      "geometry": {
        "type": "Point",
        "coordinates": [
          65.16445998202482,
          -29.8366887048759
        ]
      }
    },
    {
      "type": "Feature",
      "properties": {
        "norad_id": 66922,
        "name": "HULIANWANG DIGUI-112",
        "group": "last-30-days",
        "lat": -26.489543450929947,
        "lon": 69.19636675259412,
        "alt_km": 879.7223996555904,
        "timestamp": "2025-12-18T10:51:24.516465+00:00",
        "meta_object_name": "HULIANWANG DIGUI-112",
        "meta_object_id": "2025-285H",
        "meta_epoch": "2025-12-17T23:03:53.892288",
        "meta_mean_motion": 14.03660353,
        "meta_eccentricity": 0.0006456,
        "meta_inclination": 50.009,
        "meta_ra_of_asc_node": 95.9245,
        "meta_arg_of_pericenter": 321.0816,
        "meta_mean_anomaly": 38.9623,
        "meta_ephemeris_type": 0,
        "meta_classification_type": "U",
        "meta_norad_cat_id": 66922,
        "meta_element_set_no": 999,
        "meta_rev_at_epoch": 164,
        "meta_bstar": -1.1741e-06,
        "meta_mean_motion_dot": -1.53e-06,
        "meta_mean_motion_ddot": 0,
        "tle_line1": "1 66922U 25285H   25351.96104042 -.00000153  00000+0 -11741-5 0  9998",
        "tle_line2": "2 66922  50.0090  95.9245 0006456 321.0816  38.9623 14.03660353  1640"
      },
      "geometry": {
        "type": "Point",
        "coordinates": [
          69.19636675259412,
          -26.489543450929947
        ]
      }
    },
    {
      "type": "Feature",
      "properties": {
        "norad_id": 66923,
        "name": "HULIANWANG DIGUI-113",
        "group": "last-30-days",
        "lat": -22.68594011716696,
        "lon": 73.37493814335659,
        "alt_km": 879.2435975451544,
        "timestamp": "2025-12-18T10:51:24.516475+00:00",
        "meta_object_name": "HULIANWANG DIGUI-113",
        "meta_object_id": "2025-285J",
        "meta_epoch": "2025-12-17T23:02:32.506080",
        "meta_mean_motion": 14.04002101,
        "meta_eccentricity": 0.00052299,
        "meta_inclination": 50.01,
        "meta_ra_of_asc_node": 95.9206,
        "meta_arg_of_pericenter": 314.361,
        "meta_mean_anomaly": 45.6866,
        "meta_ephemeris_type": 0,
        "meta_classification_type": "U",
        "meta_norad_cat_id": 66923,
        "meta_element_set_no": 999,
        "meta_rev_at_epoch": 164,
        "meta_bstar": 8.0623539e-05,
        "meta_mean_motion_dot": -2.3e-07,
        "meta_mean_motion_ddot": 0,
        "tle_line1": "1 66923U 25285J   25351.96009845 -.00000023  00000+0  80624-4 0  9994",
        "tle_line2": "2 66923  50.0100  95.9206 0005229 314.3610  45.6866 14.04002101  1640"
      },
      "geometry": {
        "type": "Point",
        "coordinates": [
          73.37493814335659,
          -22.68594011716696
        ]
      }
    },
    {
      "type": "Feature",
      "properties": {
        "norad_id": 66924,
        "name": "CZ-8A R/B",
        "group": "last-30-days",
        "lat": -26.48170192358998,
        "lon": 67.11582523695228,
        "alt_km": 874.7102023253856,
        "timestamp": "2025-12-18T10:51:24.516485+00:00",
        "meta_object_name": "CZ-8A R/B",
        "meta_object_id": "2025-285K",
        "meta_epoch": "2025-12-17T13:13:49.772064",
        "meta_mean_motion": 14.30503728,
        "meta_eccentricity": 0.01192803,
        "meta_inclination": 50.0072,
        "meta_ra_of_asc_node": 95.673,
        "meta_arg_of_pericenter": 123.7086,
        "meta_mean_anomaly": 237.5268,
        "meta_ephemeris_type": 0,
        "meta_classification_type": "U",
        "meta_norad_cat_id": 66924,
        "meta_element_set_no": 999,
        "meta_rev_at_epoch": 161,
        "meta_bstar": 5.260353e-05,
        "meta_mean_motion_dot": -1.8e-07,
        "meta_mean_motion_ddot": 0,
        "tle_line1": "1 66924U 25285K   25351.55127051 -.00000018  00000+0  52604-4 0  9991",
        "tle_line2": "2 66924  50.0072  95.6730 0119280 123.7086 237.5268 14.30503728  1615"
      },
      "geometry": {
        "type": "Point",
        "coordinates": [
          67.11582523695228,
          -26.48170192358998
        ]
      }
    },
    {
      "type": "Feature",
      "properties": {
        "norad_id": 66925,
        "name": "STARLINK-35945",
        "group": "last-30-days",
        "lat": 50.829283796519015,
        "lon": 88.71371037355979,
        "alt_km": 314.464640211414,
        "timestamp": "2025-12-18T10:51:24.516495+00:00",
        "meta_object_name": "STARLINK-35945",
        "meta_object_id": "2025-286A",
        "meta_epoch": "2025-12-17T22:00:01.999584",
        "meta_mean_motion": 15.8452531,
        "meta_eccentricity": 7.98e-05,
        "meta_inclination": 53.1563,
        "meta_ra_of_asc_node": 24.4334,
        "meta_arg_of_pericenter": 91.9319,
        "meta_mean_anomaly": 167.784,
        "meta_ephemeris_type": 0,
        "meta_classification_type": "U",
        "meta_norad_cat_id": 66925,
        "meta_element_set_no": 999,
        "meta_rev_at_epoch": 282,
        "meta_bstar": -0.0060894293,
        "meta_mean_motion_dot": -0.01262896,
        "meta_mean_motion_ddot": 0,
        "tle_line1": "1 66925U 25286A   25351.91668981 -.01262896  00000+0 -60894-2 0  9999",
        "tle_line2": "2 66925  53.1563  24.4334 0000798  91.9319 167.7840 15.84525310  2828"
      },
      "geometry": {
        "type": "Point",
        "coordinates": [
          88.71371037355979,
          50.829283796519015
        ]
      }
    },
    {
      "type": "Feature",
      "properties": {
        "norad_id": 66926,
        "name": "STARLINK-35942",
        "group": "last-30-days",
        "lat": 52.063301808354815,
        "lon": 95.86741138798071,
        "alt_km": 314.39215441379474,
        "timestamp": "2025-12-18T10:51:24.516505+00:00",
        "meta_object_name": "STARLINK-35942",
        "meta_object_id": "2025-286B",
        "meta_epoch": "2025-12-17T22:00:01.999584",
        "meta_mean_motion": 15.84541059,
        "meta_eccentricity": 6.562e-05,
        "meta_inclination": 53.1563,
        "meta_ra_of_asc_node": 24.4237,
        "meta_arg_of_pericenter": 91.5423,
        "meta_mean_anomaly": 172.7895,
        "meta_ephemeris_type": 0,
        "meta_classification_type": "U",
        "meta_norad_cat_id": 66926,
        "meta_element_set_no": 999,
        "meta_rev_at_epoch": 282,
        "meta_bstar": -0.0061931471,
        "meta_mean_motion_dot": -0.01282648,
        "meta_mean_motion_ddot": 0,
        "tle_line1": "1 66926U 25286B   25351.91668981 -.01282648  00000+0 -61931-2 0  9990",
        "tle_line2": "2 66926  53.1563  24.4237 0000656  91.5423 172.7895 15.84541059  2820"
      },
      "geometry": {
        "type": "Point",
        "coordinates": [
          95.86741138798071,
          52.063301808354815
        ]
      }
    }
  ]
}